,PAIR_NAME,PAIR_ADDRESS,ASSET_NAME,COLLATERAL_NAME,ASSET_ADDRESS,COLLATERAL_ADDRESS,ASSET_DECIMALS,COLLATERAL_DECIMALS
0,USDC.e/WAVAX,0xea103255F79e1A801B3D60Be10282cF4CF18a317,USDC.e,WAVAX,0xa7d7079b0fead91f3e65f86e8915cb59c1a4c664,0xb31f66aa3c1e785363f0875a1b74e27b85fd66c7,6,18
1,WAVAX/WBTC,0x0d94A1B1Feb81F0f57DcB1974fA9Ad74494C20cd,WAVAX,WBTC,0xb31f66aa3c1e785363f0875a1b74e27b85fd66c7,0x408d4cd0adb7cebd1f1a1c33a0ba2098e1295bab,18,8
2,MIM/WAVAX,0x3aA5780CD912CD600fE4f2c4Ea8d4DfEb16579d1,MIM,WAVAX,0x130966628846bfd36ff31a822705796e8cb8c18d,0xb31f66aa3c1e785363f0875a1b74e27b85fd66c7,18,18
3,SUSHI/WAVAX,0xd3BAF39Da02C2d20c43BE49Bc870DF0cb14FD397,SUSHI,WAVAX,0x39cf1bd5f15fb22ec3d9ff86b0727afc203427cc,0xb31f66aa3c1e785363f0875a1b74e27b85fd66c7,18,18
4,WAVAX/USDT.e,0x026Ea65eD519c7e48dE14374506B2439AE4F7Ff3,WAVAX,USDT.e,0xb31f66aa3c1e785363f0875a1b74e27b85fd66c7,0xc7198437980c041c805a1edcba50c1ce5db95118,18,6
5,MIM/SPELL,0xeefc9109A82fEEEdc3B5889D62f408DfF564eB06,MIM,SPELL,0x130966628846bfd36ff31a822705796e8cb8c18d,0xce1bffbd5374dac86a2893119683f4911a2f7814,18,18
6,WAVAX/USDC.e,0x8e704666Fb4d759A4a4eEbF6a4CBaD8d89A2586d,WAVAX,USDC.e,0xb31f66aa3c1e785363f0875a1b74e27b85fd66c7,0xa7d7079b0fead91f3e65f86e8915cb59c1a4c664,18,6
7,xJOE/MIM,0xc1356023888a86cC1355C2b151aF71CE5deCD253,xJOE,MIM,0x57319d41f71e81f3c65f2a47ca4e001ebafd4f33,0x130966628846bfd36ff31a822705796e8cb8c18d,18,18
8,DAI/WAVAX,0x685B570CFA3bF4889ce077f70b8a33a9b1C2E2c8,DAI,WAVAX,0xba7deebbfc5fa1100fb055a87773e1e99cd3507a,0xb31f66aa3c1e785363f0875a1b74e27b85fd66c7,18,18
9,WAVAX/WETH,0x45ecaBC5e035095B7A4BBD8A86953ff6b83ff70A,WAVAX,WETH,0xb31f66aa3c1e785363f0875a1b74e27b85fd66c7,0x49d5c2bdffac6ce2bfdb6640f4f80f226bc10bab,18,18
10,SPELL/WAVAX,0x6a1c850C407892fBC9822d70d73a14E80419a5B3,SPELL,WAVAX,0xce1bffbd5374dac86a2893119683f4911a2f7814,0xb31f66aa3c1e785363f0875a1b74e27b85fd66c7,18,18
11,WAVAX/WAVAX,0x97b785141274b71FDa92e702688981e449349114,WAVAX,WAVAX,0xb31f66aa3c1e785363f0875a1b74e27b85fd66c7,0xb31f66aa3c1e785363f0875a1b74e27b85fd66c7,18,18
12,SUSHI/MIM,0xc777A2810E5d7d53aF6587Fe7dAeB14B18b3e0FC,SUSHI,MIM,0x39cf1bd5f15fb22ec3d9ff86b0727afc203427cc,0x130966628846bfd36ff31a822705796e8cb8c18d,18,18
13,WAVAX/DAI,0xF33E495B97f2974a28EF4327De5f45FDc5A25A19,WAVAX,DAI,0xb31f66aa3c1e785363f0875a1b74e27b85fd66c7,0xba7deebbfc5fa1100fb055a87773e1e99cd3507a,18,18
14,USDC.e/DAI,0xB6F0bd4292Da8e9821EA381948De370B7F9742E2,USDC.e,DAI,0xa7d7079b0fead91f3e65f86e8915cb59c1a4c664,0xba7deebbfc5fa1100fb055a87773e1e99cd3507a,6,18
15,USDT.e/WETH,0x340C2cA1E7f32B08974542aF39630208464e8669,USDT.e,WETH,0xc7198437980c041c805a1edcba50c1ce5db95118,0x49d5c2bdffac6ce2bfdb6640f4f80f226bc10bab,6,18
16,USDT.e/WBTC,0xE96B77D468E506B39DBae36B19af699688715Ce3,USDT.e,WBTC,0xc7198437980c041c805a1edcba50c1ce5db95118,0x408d4cd0adb7cebd1f1a1c33a0ba2098e1295bab,6,8
17,WETH/WAVAX,0x03bEC481665bF43033eDE87aC0639fdcd6189E4c,WETH,WAVAX,0x49d5c2bdffac6ce2bfdb6640f4f80f226bc10bab,0xb31f66aa3c1e785363f0875a1b74e27b85fd66c7,18,18
18,WAVAX/SUSHI,0xD436e9D472B588baAb31191b28435938AEA34240,WAVAX,SUSHI,0xb31f66aa3c1e785363f0875a1b74e27b85fd66c7,0x39cf1bd5f15fb22ec3d9ff86b0727afc203427cc,18,18
19,WAVAX/MIM,0xeEe3e61EFCd18C364729E067334d595dF58176ad,WAVAX,MIM,0xb31f66aa3c1e785363f0875a1b74e27b85fd66c7,0x130966628846bfd36ff31a822705796e8cb8c18d,18,18
20,WAVAX/SPELL,0xF900E2a5696C8331f009EBf267F8C0550b10504c,WAVAX,SPELL,0xb31f66aa3c1e785363f0875a1b74e27b85fd66c7,0xce1bffbd5374dac86a2893119683f4911a2f7814,18,18
21,MIM/SUSHI,0xe0572Dd4c6ce9adBf49F126CDC47f40c28b485e4,MIM,SUSHI,0x130966628846bfd36ff31a822705796e8cb8c18d,0x39cf1bd5f15fb22ec3d9ff86b0727afc203427cc,18,18
22,MIM/xJOE,0x17E0A9f251AAc01af4f99144CC39892B1DBd2BF8,MIM,xJOE,0x130966628846bfd36ff31a822705796e8cb8c18d,0x57319d41f71e81f3c65f2a47ca4e001ebafd4f33,18,18
23,USDT.e/DAI,0x2AE95EE74A2F3d873318473dB23FD96BC60655F2,USDT.e,DAI,0xc7198437980c041c805a1edcba50c1ce5db95118,0xba7deebbfc5fa1100fb055a87773e1e99cd3507a,6,18
24,USDC.e/WETH,0x48aC6A090176A7538349b714b8101E32B9dd4E47,USDC.e,WETH,0xa7d7079b0fead91f3e65f86e8915cb59c1a4c664,0x49d5c2bdffac6ce2bfdb6640f4f80f226bc10bab,6,18
25,xJOE/SUSHI,0x65d865b5280163eBF0E4928796F47EaeE89A96d9,xJOE,SUSHI,0x57319d41f71e81f3c65f2a47ca4e001ebafd4f33,0x39cf1bd5f15fb22ec3d9ff86b0727afc203427cc,18,18
26,USDC.e/USDT.e,0x84336C6E521368691a244c88fd4743eFab6Fd582,USDC.e,USDT.e,0xa7d7079b0fead91f3e65f86e8915cb59c1a4c664,0xc7198437980c041c805a1edcba50c1ce5db95118,6,6
27,USDT.e/WAVAX,0x94415A25De78AFf66A8A412d9eE0802c87a380B7,USDT.e,WAVAX,0xc7198437980c041c805a1edcba50c1ce5db95118,0xb31f66aa3c1e785363f0875a1b74e27b85fd66c7,6,18
28,USDT.e/MIM,0xb884d145FB02D3eF666C3b22d46b08Db3500CF98,USDT.e,MIM,0xc7198437980c041c805a1edcba50c1ce5db95118,0x130966628846bfd36ff31a822705796e8cb8c18d,6,18
29,DAI/AAVE,0xBA1d5eB364907DE7F96282A61642B53738174D38,DAI,AAVE,0xba7deebbfc5fa1100fb055a87773e1e99cd3507a,0x8ce2dee54bb9921a2ae0a63dbb2df8ed88b91dd9,18,18
30,WBTC/WAVAX,0xd6ddc1c6Ef3af255CfE298d71E5bB5Fcb0267411,WBTC,WAVAX,0x408d4cd0adb7cebd1f1a1c33a0ba2098e1295bab,0xb31f66aa3c1e785363f0875a1b74e27b85fd66c7,8,18
31,DAI/MIM,0xf2480801293f42810E0ffa59a3ad3A8352C01C61,DAI,MIM,0xba7deebbfc5fa1100fb055a87773e1e99cd3507a,0x130966628846bfd36ff31a822705796e8cb8c18d,18,18
32,AAVE/WAVAX,0x15166030894dc4A6eff405560a5D8c998FC521bc,AAVE,WAVAX,0x8ce2dee54bb9921a2ae0a63dbb2df8ed88b91dd9,0xb31f66aa3c1e785363f0875a1b74e27b85fd66c7,18,18
33,LINK/WAVAX,0x3878d0CBf27Cc1187B0Cf920A17cF252f08c981c,LINK,WAVAX,0xb3fe5374f67d7a22886a0ee082b2e2f9d2651651,0xb31f66aa3c1e785363f0875a1b74e27b85fd66c7,18,18
34,LINK/WETH,0x74590122C057e55c3891D21484b1Fc624b0965aF,LINK,WETH,0xb3fe5374f67d7a22886a0ee082b2e2f9d2651651,0x49d5c2bdffac6ce2bfdb6640f4f80f226bc10bab,18,18
35,LINK/USDC.e,0x795167fB9872FdA4d552e3Ef8945C8ecaA0144c2,LINK,USDC.e,0xb3fe5374f67d7a22886a0ee082b2e2f9d2651651,0xa7d7079b0fead91f3e65f86e8915cb59c1a4c664,18,6
36,AAVE/WETH,0x9dD167c381b890d1E0Cc5A2c0b5FAA57136b44E5,AAVE,WETH,0x8ce2dee54bb9921a2ae0a63dbb2df8ed88b91dd9,0x49d5c2bdffac6ce2bfdb6640f4f80f226bc10bab,18,18
37,JOE/WAVAX,0xc7F767328F05F95a6dBcFF939509D68121Cf203e,JOE,WAVAX,0x6e84a6216ea6dacc71ee8e6b0a5b7322eebc0fdd,0xb31f66aa3c1e785363f0875a1b74e27b85fd66c7,18,18
